{
  "norad_id": 60124,
  "name": "STARLINK-11161 [DTC]",
  "history": [
    {
      "epoch": "2026-04-16T19:09:26.767872Z",
      "apogee_km": 360.41168400851984,
      "perigee_km": 359.05467695417155,
      "latitude_deg": 5.984086781979772e-05,
      "longitude_deg": -98.53495472997625,
      "height_km": 360.4321062567393,
      "semi_major_axis_km": 6737.870180481345,
      "eccentricity": 0.0001007,
      "inclination_deg": 53.1589,
      "raan_deg": 33.7673,
      "arg_perigee_deg": 71.5438,
      "mean_anomaly_deg": 288.569,
      "mean_motion_rev_day": 15.69707753
    },
    {
      "epoch": "2026-04-17T11:57:58.438656Z",
      "apogee_km": 360.4755129029709,
      "perigee_km": 359.0146053149165,
      "latitude_deg": 1.0391336339854945e-05,
      "longitude_deg": 5.191835006200898,
      "height_km": 360.6156614381466,
      "semi_major_axis_km": 6737.882059108943,
      "eccentricity": 0.00010841,
      "inclination_deg": 53.1601,
      "raan_deg": 30.3164,
      "arg_perigee_deg": 86.6183,
      "mean_anomaly_deg": 273.4959,
      "mean_motion_rev_day": 15.69703602
    },
    {
      "epoch": "2026-04-18T04:46:29.076960Z",
      "apogee_km": 360.4157865281186,
      "perigee_km": 359.0276528746863,
      "latitude_deg": -2.6559511439073425e-05,
      "longitude_deg": 108.92064745426339,
      "height_km": 360.5674455550074,
      "semi_major_axis_km": 6737.858719701402,
      "eccentricity": 0.00010301,
      "inclination_deg": 53.1603,
      "raan_deg": 26.8632,
      "arg_perigee_deg": 84.3716,
      "mean_anomaly_deg": 275.7419,
      "mean_motion_rev_day": 15.69711758
    },
    {
      "epoch": "2026-04-19T11:20:10.608000Z",
      "apogee_km": 360.35205205149305,
      "perigee_km": 359.204719819576,
      "latitude_deg": 4.66963493120617e-05,
      "longitude_deg": 2.9655377260060116,
      "height_km": 360.70135838775116,
      "semi_major_axis_km": 6737.915385935535,
      "eccentricity": 8.514e-05,
      "inclination_deg": 53.1602,
      "raan_deg": 20.5862,
      "arg_perigee_deg": 90.8965,
      "mean_anomaly_deg": 269.2151,
      "mean_motion_rev_day": 15.69691956
    },
    {
      "epoch": "2026-04-21T10:42:21.061440Z",
      "apogee_km": 361.1527217427092,
      "perigee_km": 358.3290118862851,
      "latitude_deg": 3.4294505695735375e-05,
      "longitude_deg": 0.744569314330255,
      "height_km": 360.80852054960127,
      "semi_major_axis_km": 6737.877866814497,
      "eccentricity": 0.00020954,
      "inclination_deg": 53.1603,
      "raan_deg": 10.8542,
      "arg_perigee_deg": 96.3176,
      "mean_anomaly_deg": 263.8081,
      "mean_motion_rev_day": 15.69705067
    },
    {
      "epoch": "2026-04-22T01:59:14.204256Z",
      "apogee_km": 360.41964279943386,
      "perigee_km": 359.12838953229493,
      "latitude_deg": -3.2203763070173485e-05,
      "longitude_deg": 127.75900375248968,
      "height_km": 361.0270629805375,
      "semi_major_axis_km": 6737.911016165864,
      "eccentricity": 9.582e-05,
      "inclination_deg": 53.16,
      "raan_deg": 7.7177,
      "arg_perigee_deg": 121.6751,
      "mean_anomaly_deg": 238.436,
      "mean_motion_rev_day": 15.69693483
    },
    {
      "epoch": "2026-04-22T23:22:46.896096Z",
      "apogee_km": 360.21841457982464,
      "perigee_km": 359.2158218870318,
      "latitude_deg": -4.017614650707403e-05,
      "longitude_deg": 161.59852440470598,
      "height_km": 360.6919754267333,
      "semi_major_axis_km": 6737.854118233428,
      "eccentricity": 7.44e-05,
      "inclination_deg": 53.1588,
      "raan_deg": 3.322,
      "arg_perigee_deg": 96.9717,
      "mean_anomaly_deg": 263.1385,
      "mean_motion_rev_day": 15.69713366
    },
    {
      "epoch": "2026-04-24T21:13:17.929920Z",
      "apogee_km": 360.24068790612637,
      "perigee_km": 359.21383739249814,
      "latitude_deg": -2.9790601116339293e-05,
      "longitude_deg": -177.3302402407655,
      "height_km": 360.5127923447176,
      "semi_major_axis_km": 6737.864262649312,
      "eccentricity": 7.62e-05,
      "inclination_deg": 53.1597,
      "raan_deg": 353.9052,
      "arg_perigee_deg": 75.4966,
      "mean_anomaly_deg": 284.6136,
      "mean_motion_rev_day": 15.69709821
    },
    {
      "epoch": "2026-04-25T20:08:32.935776Z",
      "apogee_km": 360.186656741148,
      "perigee_km": 359.215060521934,
      "latitude_deg": 2.9933605604695274e-05,
      "longitude_deg": -166.7919455421701,
      "height_km": 360.95106039167547,
      "semi_major_axis_km": 6737.837858631541,
      "eccentricity": 7.21e-05,
      "inclination_deg": 53.1587,
      "raan_deg": 349.1973,
      "arg_perigee_deg": 133.7501,
      "mean_anomaly_deg": 226.3577,
      "mean_motion_rev_day": 15.69719048
    },
    {
      "epoch": "2026-04-26T20:35:29.559264Z",
      "apogee_km": 360.2694171979374,
      "perigee_km": 359.1987694812051,
      "latitude_deg": 3.4973386529672756e-05,
      "longitude_deg": -179.5531598208581,
      "height_km": 360.5577984917675,
      "semi_major_axis_km": 6737.8710933395705,
      "eccentricity": 7.945e-05,
      "inclination_deg": 53.1583,
      "raan_deg": 344.1761,
      "arg_perigee_deg": 80.3015,
      "mean_anomaly_deg": 279.8093,
      "mean_motion_rev_day": 15.69707434
    },
    {
      "epoch": "2026-04-27T21:02:26.229408Z",
      "apogee_km": 360.4534803067272,
      "perigee_km": 359.1678798893645,
      "latitude_deg": 8.555236749310857e-06,
      "longitude_deg": 167.68760786305316,
      "height_km": 360.37869404270555,
      "semi_major_axis_km": 6737.947680098046,
      "eccentricity": 9.54e-05,
      "inclination_deg": 53.1586,
      "raan_deg": 339.1571,
      "arg_perigee_deg": 57.447,
      "mean_anomaly_deg": 302.664,
      "mean_motion_rev_day": 15.69680671
    },
    {
      "epoch": "2026-04-28T19:57:41.268960Z",
      "apogee_km": 360.87090551998153,
      "perigee_km": 358.53422275913726,
      "latitude_deg": -1.1982763241165849e-06,
      "longitude_deg": 178.22291085961567,
      "height_km": 361.577694815137,
      "semi_major_axis_km": 6737.839564139559,
      "eccentricity": 0.0001734,
      "inclination_deg": 53.159,
      "raan_deg": 334.4464,
      "arg_perigee_deg": 145.3775,
      "mean_anomaly_deg": 214.7356,
      "mean_motion_rev_day": 15.69718452
    },
    {
      "epoch": "2026-04-29T20:24:37.474272Z",
      "apogee_km": 360.4677756323845,
      "perigee_km": 359.104020037862,
      "latitude_deg": 1.8751267822362206e-05,
      "longitude_deg": 165.46255472760785,
      "height_km": 360.68009410051036,
      "semi_major_axis_km": 6737.922897835123,
      "eccentricity": 0.0001012,
      "inclination_deg": 53.1593,
      "raan_deg": 329.4243,
      "arg_perigee_deg": 88.3618,
      "mean_anomaly_deg": 271.7516,
      "mean_motion_rev_day": 15.69689331
    },
    {
      "epoch": "2026-04-30T07:06:25.420320Z",
      "apogee_km": 360.52550861998316,
      "perigee_km": 359.05839197034584,
      "latitude_deg": -4.542292125406697e-05,
      "longitude_deg": 2.37743574293675,
      "height_km": 360.7271595376309,
      "semi_major_axis_km": 6737.928950295164,
      "eccentricity": 0.00010887,
      "inclination_deg": 53.1596,
      "raan_deg": 327.2283,
      "arg_perigee_deg": 91.6859,
      "mean_anomaly_deg": 268.4283,
      "mean_motion_rev_day": 15.69687216
    },
    {
      "epoch": "2026-05-02T06:28:37.865280Z",
      "apogee_km": 360.39338728499024,
      "perigee_km": 359.14283209663154,
      "latitude_deg": -1.6156385537595785e-05,
      "longitude_deg": 0.15007942255729714,
      "height_km": 360.7687038530222,
      "semi_major_axis_km": 6737.905109690811,
      "eccentricity": 9.28e-05,
      "inclination_deg": 53.1599,
      "raan_deg": 317.4982,
      "arg_perigee_deg": 97.9712,
      "mean_anomaly_deg": 262.1411,
      "mean_motion_rev_day": 15.69695547
    },
    {
      "epoch": "2026-05-03T17:37:21.542304Z",
      "apogee_km": 360.27735167282844,
      "perigee_km": 359.3704221374519,
      "latitude_deg": 3.755901211987765e-06,
      "longitude_deg": -175.6975701736429,
      "height_km": 360.7291891250618,
      "semi_major_axis_km": 6737.96088690514,
      "eccentricity": 6.73e-05,
      "inclination_deg": 53.1595,
      "raan_deg": 310.2759,
      "arg_perigee_deg": 88.8817,
      "mean_anomaly_deg": 271.2278,
      "mean_motion_rev_day": 15.69676056
    },
    {
      "epoch": "2026-05-04T18:04:17.344992Z",
      "apogee_km": 360.46416788948045,
      "perigee_km": 358.99261808765186,
      "latitude_deg": 3.8172340513642506e-07,
      "longitude_deg": 171.54383468528914,
      "height_km": 361.20345704236126,
      "semi_major_axis_km": 6737.865392988566,
      "eccentricity": 0.0001092,
      "inclination_deg": 53.1597,
      "raan_deg": 305.2539,
      "arg_perigee_deg": 139.6734,
      "mean_anomaly_deg": 220.4365,
      "mean_motion_rev_day": 15.69709426
    },
    {
      "epoch": "2026-05-05T18:31:14.054016Z",
      "apogee_km": 360.35440943659614,
      "perigee_km": 359.16449692296464,
      "latitude_deg": -1.8210046600482232e-05,
      "longitude_deg": 158.78504109838667,
      "height_km": 361.2292632832536,
      "semi_major_axis_km": 6737.89645317978,
      "eccentricity": 8.83e-05,
      "inclination_deg": 53.1572,
      "raan_deg": 300.2355,
      "arg_perigee_deg": 159.005,
      "mean_anomaly_deg": 201.1004,
      "mean_motion_rev_day": 15.69698572
    },
    {
      "epoch": "2026-05-06T20:29:52.636416Z",
      "apogee_km": 360.86995035622203,
      "perigee_km": 358.65857116244206,
      "latitude_deg": 3.379265855862439e-05,
      "longitude_deg": 122.72476245358634,
      "height_km": 360.00232295575586,
      "semi_major_axis_km": 6737.901260759332,
      "eccentricity": 0.0001641,
      "inclination_deg": 53.1568,
      "raan_deg": 294.9028,
      "arg_perigee_deg": 52.3773,
      "mean_anomaly_deg": 307.7394,
      "mean_motion_rev_day": 15.69696892
    }
  ]
}